[{"OBJECT_NAME":"STARLINK-4346","OBJECT_ID":"2022-077AG","EPOCH":"2026-03-09T23:20:05.829216","MEAN_MOTION":15.20483722,"ECCENTRICITY":0.00045407,"INCLINATION":97.6378,"RA_OF_ASC_NODE":257.0949,"ARG_OF_PERICENTER":212.0804,"MEAN_ANOMALY":148.0155,"EPHEMERIS_TYPE":0,"CLASSIFICATION_TYPE":"U","NORAD_CAT_ID":53073,"ELEMENT_SET_NO":999,"REV_AT_EPOCH":20134,"BSTAR":0.00030178555,"MEAN_MOTION_DOT":6.523e-5,"MEAN_MOTION_DDOT":0},{"OBJECT_NAME":"COSMOS 1536","OBJECT_ID":"1984-013A","EPOCH":"2026-03-09T12:33:00.332064","MEAN_MOTION":15.23821576,"ECCENTRICITY":0.00124739,"INCLINATION":82.5428,"RA_OF_ASC_NODE":108.0163,"ARG_OF_PERICENTER":284.1309,"MEAN_ANOMALY":75.8542,"EPHEMERIS_TYPE":0,"CLASSIFICATION_TYPE":"U","NORAD_CAT_ID":14699,"ELEMENT_SET_NO":999,"REV_AT_EPOCH":27259,"BSTAR":0.00029910457,"MEAN_MOTION_DOT":7.251e-5,"MEAN_MOTION_DDOT":0}]
